      2.10          N: GNSS NAV DATA                        RINEX VERSION / TYPE
fic2rin                                 05/08/2024 00:59:02 PGM / RUN BY / DATE
                                                            END OF HEADER
5  24  5  7  1 59 44.0 -.171787105501D-03 -.136424205266D-11  .000000000000D+00
     .300000000000D+01 -.218750000000D+01  .419374611493D-08  .209062184704D+01
    -.135973095894D-06  .582087179646D-02  .120401382446D-04  .515361190414D+04
     .179984000000D+06  .130385160446D-07 -.288637360541D+01 -.178813934326D-06
     .971382762883D+00  .154312500000D+03  .124277458548D+01 -.764853287781D-08
     .582167106740D-09  .100000000000D+01  .231300000000D+04  .000000000000D+00
     .240000000000D+01  .000000000000D+00 -.107102096081D-07  .300000000000D+01
     .172800000000D+06  .400000000000D+01
29 24  5  7 14  0  0.0 -.599302817136D-03  .136424205266D-11  .000000000000D+00
     .870000000000D+02  .198750000000D+02  .471733935326D-08  .176782847107D+01
     .113621354103D-05  .288430147339D-02 -.186264514923D-06  .515360117912D+04
     .223200000000D+06  .894069671631D-07  .142565207423D+01 -.800937414169D-07
     .971350265620D+00  .383875000000D+03  .252204681337D+01 -.855928510001D-08
    -.817891211309D-10  .100000000000D+01  .231300000000D+04  .000000000000D+00
     .240000000000D+01  .000000000000D+00 -.977888703346D-08  .870000000000D+02
     .216000000000D+06  .400000000000D+01
16 24  5  7 14  0  0.0 -.297815538943D-03  .977706804406D-11  .000000000000D+00
     .530000000000D+02  .158625000000D+03  .428624996809D-08  .266097396985D+01
     .797025859356D-05  .139205281157D-01  .965595245361D-05  .515378381348D+04
     .223200000000D+06  .111758708954D-07  .389350737244D+00 -.201165676117D-06
     .962517194053D+00  .193468750000D+03  .838785171638D+00 -.775210862073D-08
     .266082511976D-09  .100000000000D+01  .231300000000D+04  .000000000000D+00
     .240000000000D+01  .000000000000D+00 -.102445483208D-07  .530000000000D+02
     .216000000000D+06  .400000000000D+01
15 24  5  7 14  0  0.0  .156462658197D-03  .409272615798D-11  .000000000000D+00
     .280000000000D+02  .295625000000D+02  .563416325694D-08  .789880667277D+00
     .153854489326D-05  .155554265948D-01  .534020364285D-05  .515363804817D+04
     .223200000000D+06 -.208616256714D-06 -.194383146347D+01  .745058059692D-08
     .934813988995D+00  .267000000000D+03  .130644924034D+01 -.891037115272D-08
     .320013329840D-09  .100000000000D+01  .231300000000D+04  .000000000000D+00
     .240000000000D+01  .000000000000D+00 -.102445483208D-07  .280000000000D+02
     .216000000000D+06  .400000000000D+01
9  24  5  7 14  0  0.0  .187585130334D-03  .139834810398D-10  .000000000000D+00
     .160000000000D+02  .165312500000D+02  .498413618071D-08  .219375197890D+01
     .895932316780D-06  .266898062546D-02  .484660267830D-05  .515365998268D+04
     .223200000000D+06  .167638063431D-07 -.181638116704D+01  .745058059692D-07
     .957911281330D+00  .284281250000D+03  .199135133488D+01 -.820105589261D-08
     .308584282345D-09  .100000000000D+01  .231300000000D+04  .000000000000D+00
     .240000000000D+01  .000000000000D+00  .931322574615D-09  .160000000000D+02
     .216000000000D+06  .400000000000D+01
8  24  5  7 14  0  0.0  .165225937963D-03  .210320649785D-10  .000000000000D+00
     .620000000000D+02  .500000000000D+02  .529843498680D-08  .173314991608D+01
     .271946191788D-05  .944725843146D-02  .931322574615D-07  .515362365150D+04
     .223200000000D+06 -.124797224998D-06  .131620614029D+01  .176951289177D-06
     .953230717360D+00  .377062500000D+03  .360938631343D+00 -.887322674837D-08
     .171435712414D-10  .100000000000D+01  .231300000000D+04  .000000000000D+00
     .240000000000D+01  .000000000000D+00  .465661287308D-08  .620000000000D+02
     .216000000000D+06  .400000000000D+01
25 24  5  7 14  0  0.0  .495283864439D-03  .682121026330D-12  .000000000000D+00
     .830000000000D+02  .131281250000D+03  .457269047091D-08 -.187777802188D+01
     .680983066559D-05  .117419379530D-01  .100545585155D-04  .515358481407D+04
     .223200000000D+06  .221654772758D-06  .285168204069D+00  .149011611938D-07
     .950995061081D+00  .180781250000D+03  .109040549986D+01 -.791354391658D-08
     .225723688012D-09  .100000000000D+01  .231300000000D+04  .000000000000D+00
     .240000000000D+01  .000000000000D+00  .512227416039D-08  .830000000000D+02
     .216000000000D+06  .400000000000D+01
13 24  5  7 14  0  0.0  .648658256978D-03  .295585778076D-11  .000000000000D+00
     .810000000000D+02  .465625000000D+01  .483484424781D-08  .146615459973D+01
     .165775418282D-06  .798256054986D-02  .434368848801D-05  .515364605522D+04
     .223200000000D+06 -.171363353729D-06 -.165068694288D+01  .633299350739D-07
     .970851406167D+00  .300500000000D+03  .922796403706D+00 -.832606109958D-08
     .108218793461D-09  .100000000000D+01  .231300000000D+04  .000000000000D+00
     .240000000000D+01  .000000000000D+00 -.111758708954D-07  .810000000000D+02
     .216000000000D+06  .400000000000D+01
20 24  5  7 14  0  0.0  .377448741347D-03 -.136424205266D-11  .000000000000D+00
     .190000000000D+03 -.445000000000D+02  .429660754238D-08  .202745667388D+00
    -.225193798542D-05  .361792906187D-02  .126007944345D-04  .515378579330D+04
     .223200000000D+06  .100582838058D-06 -.301510651527D+01  .111758708954D-06
     .953899943864D+00  .136218750000D+03 -.259617723780D+01 -.785747015231D-08
     .382873091058D-09  .100000000000D+01  .231300000000D+04  .000000000000D+00
     .240000000000D+01  .000000000000D+00 -.838190317154D-08  .190000000000D+03
     .216000000000D+06  .400000000000D+01
14 24  5  7 14  0  0.0  .394890084863D-03  .943600753089D-11  .000000000000D+00
     .102000000000D+03  .137687500000D+03  .463912180947D-08 -.184193871893D+01
     .702962279320D-05  .441047188360D-02  .110026448965D-04  .515370929718D+04
     .223200000000D+06  .614672899246D-07  .327359535359D+00 -.745058059692D-07
     .946380097284D+00  .159375000000D+03 -.292401035631D+01 -.811498087867D-08
     .255724937684D-09  .100000000000D+01  .231300000000D+04  .000000000000D+00
     .240000000000D+01  .000000000000D+00 -.791624188423D-08  .102000000000D+03
     .216000000000D+06  .400000000000D+01
28 24  5  7 14  0  0.0 -.233951024711D-03 -.160298441187D-10  .000000000000D+00
     .215000000000D+03 -.205000000000D+02  .454411785218D-08 -.255503830637D+01
    -.111572444439D-05  .385743565857D-03  .976584851742D-05  .515364232445D+04
     .223200000000D+06  .186264514923D-08 -.776960625380D+00  .502914190292D-07
     .961362353355D+00  .186281250000D+03  .174030928209D+01 -.793675916931D-08
    -.565737850967D-09  .100000000000D+01  .231300000000D+04  .000000000000D+00
     .240000000000D+01  .000000000000D+00 -.931322574615D-08  .471000000000D+03
     .216000000000D+06  .400000000000D+01
18 24  5  7 14  0  0.0 -.606891233474D-03 -.602540239925D-11  .000000000000D+00
     .163000000000D+03 -.140968750000D+03  .407266964304D-08 -.236447389554D+00
    -.760890543461D-05  .404392229393D-02  .794045627117D-05  .515361430359D+04
     .223200000000D+06  .558793544769D-07  .241597570270D+01  .391155481339D-07
     .974602688000D+00  .233562500000D+03 -.304784318256D+01 -.799640451092D-08
    -.498949354672D-09  .100000000000D+01  .231300000000D+04  .000000000000D+00
     .240000000000D+01  .000000000000D+00 -.838190317154D-08  .419000000000D+03
     .216000000000D+06  .400000000000D+01
11 24  5  7 14  0  0.0 -.656197313219D-03 -.954969436862D-11  .000000000000D+00
     .195000000000D+03 -.146468750000D+03  .427803534020D-08  .102122160230D+01
    -.757537782192D-05  .126595795155D-02  .720657408237D-05  .515370526123D+04
     .223200000000D+06 -.391155481339D-07  .244512117528D+01  .186264514923D-08
     .966312367817D+00  .245718750000D+03 -.255545767670D+01 -.805104964425D-08
    -.421803284086D-09  .100000000000D+01  .231300000000D+04  .000000000000D+00
     .240000000000D+01  .000000000000D+00 -.884756445885D-08  .963000000000D+03
     .216000000000D+06  .400000000000D+01
23 24  5  7 14  0  0.0  .219513662159D-03  .954969436862D-11  .000000000000D+00
     .189000000000D+03 -.693750000000D+01  .372515516767D-08 -.141680073228D+01
    -.407919287682D-06  .410927413031D-02  .125207006931D-04  .515371311569D+04
     .223200000000D+06 -.109896063805D-06 -.286708755700D+01 -.189989805222D-06
     .979249582910D+00  .151218750000D+03 -.296481291021D+01 -.744923886213D-08
     .513949979508D-09  .100000000000D+01  .231300000000D+04  .000000000000D+00
     .240000000000D+01  .000000000000D+00 -.838190317154D-08  .701000000000D+03
     .216000000000D+06  .400000000000D+01
10 24  5  7 13 59 28.0 -.192448496819D-04 -.602540239925D-11  .000000000000D+00
     .260000000000D+02 -.443750000000D+01  .354871924697D-08 -.256668066341D+01
    -.340864062309D-06  .929636252113D-02  .128578394651D-04  .515368944740D+04
     .223168000000D+06 -.689178705215D-07 -.283821752994D+01 -.279396772385D-07
     .984097109720D+00  .142781250000D+03 -.237015561920D+01 -.729137514361D-08
     .653955811313D-09  .100000000000D+01  .231300000000D+04  .000000000000D+00
     .240000000000D+01  .000000000000D+00  .232830643654D-08  .260000000000D+02
     .218940000000D+06  .400000000000D+01
